OBJECT_NAME,OBJECT_ID,EPOCH,MEAN_MOTION,ECCENTRICITY,INCLINATION,RA_OF_ASC_NODE,ARG_OF_PERICENTER,MEAN_ANOMALY,EPHEMERIS_TYPE,CLASSIFICATION_TYPE,NORAD_CAT_ID,ELEMENT_SET_NO,REV_AT_EPOCH,BSTAR,MEAN_MOTION_DOT,MEAN_MOTION_DDOT
O3B MPOWER F3,2023-059B,2025-07-15T15:02:09.892032,5.00116418,.0006029,0.0355,355.6832,112.0254,252.3564,0,U,56368,999,3789,0,-.11E-6,0
VIASAT-3,2023-060A,2025-07-15T04:11:52.471968,1.00268446,.0000352,0.0183,12.9645,203.5777,50.7266,0,U,56370,999,805,0,-.177E-5,0
ARCTURUS,2023-060B,2025-07-15T11:18:34.856064,1.00267674,.0002441,1.9074,84.2301,87.3127,210.7318,0,U,56371,999,807,0,-.218E-5,0
GS-1,2023-060C,2025-07-15T16:22:09.950304,1.00279985,.000304,1.8565,83.8660,276.9276,239.2893,0,U,56372,999,416,0,.48E-6,0
STARLINK-6156,2023-061A,2025-07-15T21:43:29.574624,15.02535994,.0001177,43.0045,44.3035,263.3284,96.7424,0,U,56374,999,12223,.5173E-4,.495E-5,0
STARLINK-6158,2023-061B,2025-07-15T07:13:57.215424,15.02534021,.0000979,43.0045,47.5104,262.1232,97.9499,0,U,56375,999,12104,.13578E-4,-.2E-6,0
STARLINK-6188,2023-061C,2025-07-15T21:05:08.492928,15.02532592,.0001042,43.0050,44.0995,262.9521,97.1203,0,U,56376,999,12113,.32548E-4,.236E-5,0
STARLINK-6189,2023-061D,2025-07-15T15:07:47.629632,15.02535837,.0001212,43.0044,45.6795,270.0415,90.0289,0,U,56377,999,12109,.76003E-4,.823E-5,0
STARLINK-6191,2023-061E,2025-07-15T07:15:33.071904,15.02533834,.0001067,43.0040,47.5113,258.3111,101.7611,0,U,56378,999,12104,.11011E-4,-.55E-6,0
STARLINK-6157,2023-061F,2025-07-15T21:14:43.621440,15.02532957,.0001272,43.0044,44.1508,266.4636,93.6061,0,U,56379,999,12223,.25104E-4,.135E-5,0
STARLINK-6161,2023-061G,2025-07-15T20:59:18.198816,16.06442650,.0003138,42.9988,24.6715,213.7607,278.5934,0,U,56380,999,12164,.76474E-3,.597277E-2,.18111E-3
STARLINK-6159,2023-061H,2025-07-15T15:01:24.421440,15.02534304,.0000978,43.0047,45.6454,257.7755,102.2978,0,U,56381,999,12109,.78128E-5,-.98E-6,0
STARLINK-6160,2023-061J,2025-07-15T21:06:44.095392,15.02536634,.0000963,43.0045,44.1041,249.3096,110.7643,0,U,56382,999,12113,.26138E-4,.15E-5,0
STARLINK-6166,2023-061K,2025-07-15T21:09:55.919808,15.02532376,.0001286,43.0046,44.1217,264.5096,95.5600,0,U,56383,999,12113,.18643E-4,.48E-6,0
STARLINK-6153,2023-061L,2025-07-15T20:55:32.750112,15.02538443,.0001451,43.0056,44.0467,269.0431,91.0245,0,U,56384,999,12113,-.74672E-4,-.1212E-4,0
STARLINK-6173,2023-061M,2025-07-15T21:00:20.783520,15.02534605,.000095,43.0048,44.0750,237.2426,122.8325,0,U,56385,999,12113,.13103E-4,-.27E-6,0
STARLINK-5836,2023-061N,2025-07-15T23:57:24.697728,15.02534965,.0001152,43.0045,43.2714,253.8289,106.2427,0,U,56386,999,12144,.60548E-4,.614E-5,0
STARLINK-6178,2023-061P,2025-07-15T22:07:17.439168,15.02541693,.0001028,43.0036,43.5631,270.5408,89.5317,0,U,56387,999,12114,.90537E-4,.102E-4,0
STARLINK-6176,2023-061Q,2025-07-15T15:06:11.885472,15.02533628,.0001127,43.0043,45.6543,259.2448,100.8267,0,U,56388,999,12138,.1629E-4,.16E-6,0
STARLINK-6145,2023-061R,2025-07-16T00:02:12.359616,15.02535092,.0001195,43.0048,43.2975,265.5205,94.5501,0,U,56389,999,12144,.2955E-4,.196E-5,0
STARLINK-6298,2023-061T,2025-07-15T20:41:09.555360,15.02538399,.0001114,43.0051,43.9680,267.6513,92.4202,0,U,56391,999,12113,.18057E-4,.4E-6,0
STARLINK-6301,2023-061U,2025-07-15T14:21:59.497920,15.02533972,.0001192,43.0041,33.3023,269.5299,90.5406,0,U,56392,999,12152,.11033E-5,-.189E-5,0
STARLINK-6303,2023-061V,2025-07-15T20:36:21.852864,15.02536828,.0001174,43.0046,43.9488,261.5516,98.5194,0,U,56393,999,12113,.28338E-4,.179E-5,0
STARLINK-6305,2023-061W,2025-07-15T20:28:55.087968,15.02533791,.0001249,43.0048,31.7779,262.6319,97.4381,0,U,56394,999,12127,.17611E-4,.34E-6,0
STARLINK-6273,2023-061X,2025-07-15T20:33:42.837120,15.02533879,.0001236,43.0041,31.7979,270.8789,89.1912,0,U,56395,999,12198,.25563E-4,.142E-5,0
STARLINK-6302,2023-061Y,2025-07-15T20:20:55.163616,15.02539818,.0001164,43.0049,31.7343,271.8813,88.1896,0,U,56396,999,11640,.71511E-4,.763E-5,0
STARLINK-6271,2023-061Z,2025-07-15T12:38:16.217376,15.02537074,.0001183,43.0048,33.6239,270.3225,89.7482,0,U,56397,999,12151,.14167E-4,-.12E-6,0
STARLINK-6288,2023-061AA,2025-07-15T20:16:07.823136,15.02537834,.0001213,43.0043,31.7102,274.0623,86.0081,0,U,56398,999,12127,.20605E-4,.75E-6,0
STARLINK-6277,2023-061AB,2025-07-15T21:59:50.961120,15.02538487,.000113,43.0050,31.3910,265.2163,94.8550,0,U,56399,999,12128,.2898E-4,.188E-5,0
STARLINK-6267,2023-061AC,2025-07-15T21:43:52.126752,15.02532882,.0001178,43.0042,31.3078,265.1149,94.9559,0,U,56400,999,12128,.93699E-5,-.77E-6,0
STARLINK-6256,2023-061AD,2025-07-15T18:43:58.221408,15.02534732,.0001146,43.0044,19.0781,272.6110,87.4601,0,U,56401,999,12141,.24473E-5,-.171E-5,0
