O3B MPOWER F3           
1 56368U 23059B   25196.62650338 -.00000011  00000+0  00000+0 0  9994
2 56368   0.0355 355.6832 0006029 112.0254 252.3564  5.00116418 37897
VIASAT-3                
1 56370U 23060A   25196.17491287 -.00000177  00000+0  00000+0 0  9998
2 56370   0.0183  12.9645 0000352 203.5777  50.7266  1.00268446  8053
ARCTURUS                
1 56371U 23060B   25196.47123676 -.00000218  00000+0  00000+0 0  9992
2 56371   1.9074  84.2301 0002441  87.3127 210.7318  1.00267674  8072
GS-1                    
1 56372U 23060C   25196.68205961  .00000048  00000+0  00000+0 0  9994
2 56372   1.8565  83.8660 0003040 276.9276 239.2893  1.00279985  4165
STARLINK-6156           
1 56374U 23061A   25196.90520341  .00000495  00000+0  51730-4 0  9991
2 56374  43.0045  44.3035 0001177 263.3284  96.7424 15.02535994122231
STARLINK-6158           
1 56375U 23061B   25196.30135666 -.00000020  00000+0  13578-4 0  9991
2 56375  43.0045  47.5104 0000979 262.1232  97.9499 15.02534021121046
STARLINK-6188           
1 56376U 23061C   25196.87857052  .00000236  00000+0  32548-4 0  9990
2 56376  43.0050  44.0995 0001042 262.9521  97.1203 15.02532592121130
STARLINK-6189           
1 56377U 23061D   25196.63041238  .00000823  00000+0  76003-4 0  9992
2 56377  43.0044  45.6795 0001212 270.0415  90.0289 15.02535837121096
STARLINK-6191           
1 56378U 23061E   25196.30246611 -.00000055  00000+0  11011-4 0  9995
2 56378  43.0040  47.5113 0001067 258.3111 101.7611 15.02533834121047
STARLINK-6157           
1 56379U 23061F   25196.88522710  .00000135  00000+0  25104-4 0  9992
2 56379  43.0044  44.1508 0001272 266.4636  93.6061 15.02532957122238
STARLINK-6161           
1 56380U 23061G   25196.87451619  .00597277  18111-3  76474-3 0  9991
2 56380  42.9988  24.6715 0003138 213.7607 278.5934 16.06442650121646
STARLINK-6159           
1 56381U 23061H   25196.62597710 -.00000098  00000+0  78128-5 0  9993
2 56381  43.0047  45.6454 0000978 257.7755 102.2978 15.02534304121092
STARLINK-6160           
1 56382U 23061J   25196.87967703  .00000150  00000+0  26138-4 0  9995
2 56382  43.0045  44.1041 0000963 249.3096 110.7643 15.02536634121132
STARLINK-6166           
1 56383U 23061K   25196.88189722  .00000048  00000+0  18643-4 0  9992
2 56383  43.0046  44.1217 0001286 264.5096  95.5600 15.02532376121139
STARLINK-6153           
1 56384U 23061L   25196.87190683 -.00001212  00000+0 -74672-4 0  9990
2 56384  43.0056  44.0467 0001451 269.0431  91.0245 15.02538443121131
STARLINK-6173           
1 56385U 23061M   25196.87524055 -.00000027  00000+0  13103-4 0  9999
2 56385  43.0048  44.0750 0000950 237.2426 122.8325 15.02534605121130
STARLINK-5836           
1 56386U 23061N   25196.99820252  .00000614  00000+0  60548-4 0  9997
2 56386  43.0045  43.2714 0001152 253.8289 106.2427 15.02534965121447
STARLINK-6178           
1 56387U 23061P   25196.92172962  .00001020  00000+0  90537-4 0  9992
2 56387  43.0036  43.5631 0001028 270.5408  89.5317 15.02541693121144
STARLINK-6176           
1 56388U 23061Q   25196.62930423  .00000016  00000+0  16290-4 0  9992
2 56388  43.0043  45.6543 0001127 259.2448 100.8267 15.02533628121382
STARLINK-6145           
1 56389U 23061R   25197.00153194  .00000196  00000+0  29550-4 0  9990
2 56389  43.0048  43.2975 0001195 265.5205  94.5501 15.02535092121441
STARLINK-6298           
1 56391U 23061T   25196.86191615  .00000040  00000+0  18057-4 0  9994
2 56391  43.0051  43.9680 0001114 267.6513  92.4202 15.02538399121138
STARLINK-6301           
1 56392U 23061U   25196.59860530 -.00000189  00000+0  11033-5 0  9997
2 56392  43.0041  33.3023 0001192 269.5299  90.5406 15.02533972121520
STARLINK-6303           
1 56393U 23061V   25196.85858626  .00000179  00000+0  28338-4 0  9993
2 56393  43.0046  43.9488 0001174 261.5516  98.5194 15.02536828121134
STARLINK-6305           
1 56394U 23061W   25196.85341537  .00000034  00000+0  17611-4 0  9994
2 56394  43.0048  31.7779 0001249 262.6319  97.4381 15.02533791121278
STARLINK-6273           
1 56395U 23061X   25196.85674580  .00000142  00000+0  25563-4 0  9997
2 56395  43.0041  31.7979 0001236 270.8789  89.1912 15.02533879121985
STARLINK-6302           
1 56396U 23061Y   25196.84786069  .00000763  00000+0  71511-4 0  9996
2 56396  43.0049  31.7343 0001164 271.8813  88.1896 15.02539818116408
STARLINK-6271           
1 56397U 23061Z   25196.52657659 -.00000012  00000+0  14167-4 0  9996
2 56397  43.0048  33.6239 0001183 270.3225  89.7482 15.02537074121513
STARLINK-6288           
1 56398U 23061AA  25196.84453499  .00000075  00000+0  20605-4 0  9990
2 56398  43.0043  31.7102 0001213 274.0623  86.0081 15.02537834121276
STARLINK-6277           
1 56399U 23061AB  25196.91656205  .00000188  00000+0  28980-4 0  9998
2 56399  43.0050  31.3910 0001130 265.2163  94.8550 15.02538487121281
STARLINK-6267           
1 56400U 23061AC  25196.90546443 -.00000077  00000+0  93699-5 0  9990
2 56400  43.0042  31.3078 0001178 265.1149  94.9559 15.02532882121288
STARLINK-6256           
1 56401U 23061AD  25196.78053497 -.00000171  00000+0  24473-5 0  9998
2 56401  43.0044  19.0781 0001146 272.6110  87.4601 15.02534732121417
